{
  "type": "FeatureCollection",
  "features": [
    {
      "type": "Feature",
      "properties": {
        "norad_id": 59600,
        "name": "GSAT0227 (GALILEO 30)",
        "group": "galileo",
        "lat": 15.667325498187996,
        "lon": -85.2573028061741,
        "alt_km": 23214.02668368516,
        "timestamp": "2025-12-20T22:39:10.890511+00:00",
        "meta_object_name": "GSAT0227 (GALILEO 30)",
        "meta_object_id": "2024-079C",
        "meta_epoch": "2025-12-19T12:12:51.636672",
        "meta_mean_motion": 1.70474897,
        "meta_eccentricity": 0.0002924,
        "meta_inclination": 55.0006,
        "meta_ra_of_asc_node": 106.105,
        "meta_arg_of_pericenter": 116.8359,
        "meta_mean_anomaly": 243.1562,
        "meta_ephemeris_type": 0,
        "meta_classification_type": "U",
        "meta_norad_cat_id": 59600,
        "meta_element_set_no": 999,
        "meta_rev_at_epoch": 1030,
        "meta_bstar": 0,
        "meta_mean_motion_dot": -6e-08,
        "meta_mean_motion_ddot": 0,
        "tle_line1": "1 59600U 24079C   25353.50893098 -.00000006  00000+0  00000+0 0  9997",
        "tle_line2": "2 59600  55.0006 106.1050 0002924 116.8359 243.1562  1.70474897 10305"
      },
      "geometry": {
        "type": "Point",
        "coordinates": [
          -85.2573028061741,
          15.667325498187996
        ]
      }
    },
    {
      "type": "Feature",
      "properties": {
        "norad_id": 61182,
        "name": "GSAT0232 (GALILEO 32)",
        "group": "galileo",
        "lat": -4.056288998952816,
        "lon": -136.60030175332057,
        "alt_km": 23227.748178616417,
        "timestamp": "2025-12-20T22:39:10.890522+00:00",
        "meta_object_name": "GSAT0232 (GALILEO 32)",
        "meta_object_id": "2024-167A",
        "meta_epoch": "2025-12-20T01:45:16.724736",
        "meta_mean_motion": 1.70473657,
        "meta_eccentricity": 0.00018786,
        "meta_inclination": 55.2386,
        "meta_ra_of_asc_node": 226.2297,
        "meta_arg_of_pericenter": 206.8342,
        "meta_mean_anomaly": 333.9154,
        "meta_ephemeris_type": 0,
        "meta_classification_type": "U",
        "meta_norad_cat_id": 61182,
        "meta_element_set_no": 999,
        "meta_rev_at_epoch": 782,
        "meta_bstar": 0,
        "meta_mean_motion_dot": 7e-07,
        "meta_mean_motion_ddot": 0,
        "tle_line1": "1 61182U 24167A   25354.07311024  .00000070  00000+0  00000+0 0  9990",
        "tle_line2": "2 61182  55.2386 226.2297 0001878 206.8342 333.9154  1.70473657  7823"
      },
      "geometry": {
        "type": "Point",
        "coordinates": [
          -136.60030175332057,
          -4.056288998952816
        ]
      }
    },
    {
      "type": "Feature",
      "properties": {
        "norad_id": 61183,
        "name": "GSAT0226 (GALILEO 31)",
        "group": "galileo",
        "lat": 51.481918653096606,
        "lon": -14.480665701058411,
        "alt_km": 23212.86410408281,
        "timestamp": "2025-12-20T22:39:10.890532+00:00",
        "meta_object_name": "GSAT0226 (GALILEO 31)",
        "meta_object_id": "2024-167B",
        "meta_epoch": "2025-12-20T15:24:14.830848",
        "meta_mean_motion": 1.70473754,
        "meta_eccentricity": 0.00011201,
        "meta_inclination": 55.2371,
        "meta_ra_of_asc_node": 226.2196,
        "meta_arg_of_pericenter": 107.1344,
        "meta_mean_anomaly": 175.3163,
        "meta_ephemeris_type": 0,
        "meta_classification_type": "U",
        "meta_norad_cat_id": 61183,
        "meta_element_set_no": 999,
        "meta_rev_at_epoch": 780,
        "meta_bstar": 0,
        "meta_mean_motion_dot": 7.2e-07,
        "meta_mean_motion_ddot": 0,
        "tle_line1": "1 61183U 24167B   25354.64183832  .00000072  00000+0  00000+0 0  9990",
        "tle_line2": "2 61183  55.2371 226.2196 0001120 107.1344 175.3163  1.70473754  7805"
      },
      "geometry": {
        "type": "Point",
        "coordinates": [
          -14.480665701058411,
          51.481918653096606
        ]
      }
    },
    {
      "type": "Feature",
      "properties": {
        "norad_id": 67160,
        "name": "GALILEO A",
        "group": "galileo",
        "lat": -43.73812435759106,
        "lon": 63.64738803699484,
        "alt_km": 22938.180349182232,
        "timestamp": "2025-12-20T22:39:10.890542+00:00",
        "meta_object_name": "GALILEO A",
        "meta_object_id": "2025-302A",
        "meta_epoch": "2025-12-18T03:30:19.486368",
        "meta_mean_motion": 1.72906186,
        "meta_eccentricity": 0.00084238,
        "meta_inclination": 54.2406,
        "meta_ra_of_asc_node": 107.2544,
        "meta_arg_of_pericenter": 237.6458,
        "meta_mean_anomaly": 122.2317,
        "meta_ephemeris_type": 0,
        "meta_classification_type": "U",
        "meta_norad_cat_id": 67160,
        "meta_element_set_no": 999,
        "meta_rev_at_epoch": 2,
        "meta_bstar": 0,
        "meta_mean_motion_dot": -7e-08,
        "meta_mean_motion_ddot": 0,
        "tle_line1": "1 67160U 25302A   25352.14605887 -.00000007  00000+0  00000+0 0  9994",
        "tle_line2": "2 67160  54.2406 107.2544 0008423 237.6458 122.2317  1.72906186    28"
      },
      "geometry": {
        "type": "Point",
        "coordinates": [
          63.64738803699484,
          -43.73812435759106
        ]
      }
    },
    {
      "type": "Feature",
      "properties": {
        "norad_id": 67161,
        "name": "GALILEO B",
        "group": "galileo",
        "lat": -43.2427610609158,
        "lon": 64.51817428289996,
        "alt_km": 22932.42151383509,
        "timestamp": "2025-12-20T22:39:10.890552+00:00",
        "meta_object_name": "GALILEO B",
        "meta_object_id": "2025-302B",
        "meta_epoch": "2025-12-19T07:14:53.290752",
        "meta_mean_motion": 1.72972192,
        "meta_eccentricity": 0.00045866,
        "meta_inclination": 54.2272,
        "meta_ra_of_asc_node": 107.1916,
        "meta_arg_of_pericenter": 255.0301,
        "meta_mean_anomaly": 104.8802,
        "meta_ephemeris_type": 0,
        "meta_classification_type": "U",
        "meta_norad_cat_id": 67161,
        "meta_element_set_no": 999,
        "meta_rev_at_epoch": 5,
        "meta_bstar": 0,
        "meta_mean_motion_dot": -5e-08,
        "meta_mean_motion_ddot": 0,
        "tle_line1": "1 67161U 25302B   25353.30200568 -.00000005  00000+0  00000+0 0  9999",
        "tle_line2": "2 67161  54.2272 107.1916 0004586 255.0301 104.8802  1.72972192    57"
      },
      "geometry": {
        "type": "Point",
        "coordinates": [
          64.51817428289996,
          -43.2427610609158
        ]
      }
    }
  ]
}